OBJECT_NAME,OBJECT_ID,EPOCH,MEAN_MOTION,ECCENTRICITY,INCLINATION,RA_OF_ASC_NODE,ARG_OF_PERICENTER,MEAN_ANOMALY,EPHEMERIS_TYPE,CLASSIFICATION_TYPE,NORAD_CAT_ID,ELEMENT_SET_NO,REV_AT_EPOCH,BSTAR,MEAN_MOTION_DOT,MEAN_MOTION_DDOT
TDRS 3,1988-091B,2026-07-20T06:42:33.062112,1.00279581,.00379812,12.5772,340.7827,355.2556,13.6101,0,U,19548,999,12572,0,-.305E-5,0
FLTSATCOM 8 (USA 46),1989-077A,2026-07-20T06:53:00.320928,1.00280860,.00022887,12.4121,350.9591,100.1154,75.8349,0,U,20253,999,26089,0,-.373E-5,0
SKYNET 4C,1990-079A,2026-07-19T17:36:38.769984,0.98580483,.00029822,13.3275,349.6095,131.3600,244.0977,0,U,20776,999,36,0,-.256E-5,0
TDRS 5,1991-054B,2026-07-20T02:04:04.911744,1.00276242,.00072489,14.0668,353.5340,256.9198,270.7747,0,U,21639,999,12804,0,.76E-6,0
TDRS 6,1993-003B,2026-07-20T07:46:36.426144,1.00277874,.00086926,14.1834,356.8076,185.7813,186.2624,0,U,22314,999,12274,0,-.303E-5,0
UFO 2 (USA 95),1993-056A,2026-07-20T02:59:55.519296,1.00272789,.00020989,11.9063,3.3670,3.3962,4.7273,0,U,22787,999,11888,0,.117E-5,0
UFO 4 (USA 108),1995-003A,2026-07-19T17:28:38.589024,1.00269133,.00029911,9.6796,12.9923,96.6441,262.4015,0,U,23467,999,11527,0,-.3E-6,0
TDRS 7,1995-035B,2026-07-20T10:07:45.389568,1.00272469,.00111966,13.3634,347.9563,87.6598,103.7931,0,U,23613,999,11358,0,-.247E-5,0
USA 115 (MILSTAR-1 2),1995-060A,2026-07-20T10:59:18.148416,1.00272379,.00062979,14.0846,3.4968,122.5035,247.0382,0,U,23712,999,3322,0,-.21E-5,0
INMARSAT 3-F1,1996-020A,2026-07-20T05:29:27.227040,0.99981752,.00046556,10.6674,46.3232,96.8754,107.1346,0,U,23839,999,11058,0,.7E-6,0
INMARSAT 3-F2,1996-053A,2026-07-20T11:58:18.312384,0.99988666,.00062288,9.9294,53.5901,60.9732,119.6536,0,U,24307,999,10925,0,-.354E-5,0
INMARSAT 3-F3,1996-070A,2026-07-20T06:19:41.017152,0.99997013,.00036539,10.3872,49.3286,86.6725,265.9029,0,U,24674,999,10823,0,-.5E-7,0
USA 134,1997-065A,2026-07-20T06:46:31.992672,1.00275933,.00026118,12.8230,21.4711,341.2218,284.6342,0,U,25019,999,3328,0,-.72E-6,0
INMARSAT 3-F5,1998-006B,2026-07-20T02:49:53.040864,1.00271806,.00045302,9.7651,52.9272,65.9117,167.5700,0,U,25153,999,10422,0,-.299E-5,0
ABS-6,1999-053A,2026-07-20T13:11:38.622912,1.00278742,.00034144,0.0785,263.4578,211.8224,179.9679,0,U,25924,999,9817,0,-.119E-5,0
UFO 10 (USA 146),1999-063A,2026-07-20T07:53:13.291584,1.00271858,.00018147,9.8499,27.0310,130.1851,236.2532,0,U,25967,999,9768,0,-.195E-5,0
ASIASTAR,2000-016A,2026-07-20T13:12:38.678688,1.00269282,.00040189,9.2053,57.7933,71.7369,111.9326,0,U,26107,999,9625,0,-.34E-5,0
USA 149 (DSP 20),2000-024A,2026-07-20T07:20:37.035744,1.00261519,.00003134,13.1954,11.6128,268.2979,323.4716,0,U,26356,999,3324,0,.87E-6,0
TDRS 8,2000-034A,2026-07-20T01:33:15.367680,1.00271427,.00036493,12.7338,31.0366,40.7956,334.1707,0,U,26388,999,9551,0,-.205E-5,0
NSS-11,2000-059A,2026-07-20T12:39:38.831328,1.00272897,.00031269,2.2107,80.9964,47.3724,175.8399,0,U,26554,999,4162,0,.22E-6,0
USA 153,2000-065A,2026-07-20T11:14:02.075712,1.00271899,.00021469,11.6805,35.1387,58.9375,147.1547,0,U,26575,999,3326,0,-.332E-5,0
AMC-6,2000-067A,2026-07-20T12:00:38.636352,1.00272354,.00040748,0.2352,83.8823,47.5898,211.9043,0,U,26580,999,9422,0,.87E-6,0
USA 157 (MILSTAR-2 2),2001-009A,2026-07-20T08:12:38.455200,1.00277347,.00404879,11.5788,19.5545,179.1154,72.5889,0,U,26715,999,3327,0,.102E-5,0
INTELSAT 902 (IS-902),2001-039A,2026-07-20T11:10:47.046720,1.00270704,.00041493,6.1972,71.3725,48.0308,296.4297,0,U,26900,999,9102,0,-.288E-5,0
USA 164 (MILSTAR-2 3),2002-001A,2026-07-20T04:39:53.257824,1.00269032,.00992049,11.2185,21.7023,9.1757,356.0281,0,U,27168,999,3329,0,.89E-6,0
INTELSAT 904 (IS-904),2002-007A,2026-07-20T09:33:26.181216,1.00273916,.00052136,7.0008,68.7831,27.6483,313.6153,0,U,27380,999,5209,0,-.231E-5,0
DIRECTV 5 (TEMPO 1),2002-023A,2026-07-20T08:43:05.445408,1.00271984,.00030786,4.9605,74.8954,38.8350,205.0703,0,U,27426,999,8845,0,-.62E-6,0
INTELSAT 905 (IS-905),2002-027A,2026-07-20T02:32:12.510240,1.00273493,.00036114,6.8340,69.3997,49.8706,79.4617,0,U,27438,999,5169,0,.87E-6,0
GALAXY 3C (G-3C),2002-030A,2026-07-20T10:20:49.766784,1.00271267,.00017564,3.8182,77.5485,30.5553,250.4646,0,U,27445,999,4682,0,-.156E-5,0
INTELSAT 906 (IS-906),2002-041A,2026-07-20T04:52:44.524704,1.00270956,.0003457,5.8825,72.5101,29.5232,333.2928,0,U,27513,999,8736,0,.7E-7,0
NIMIQ 2,2002-062A,2026-07-20T12:47:28.648608,1.00272295,.00054635,9.5209,56.5423,57.9210,266.4944,0,U,27632,999,4451,0,-.76E-6,0
